[
    {
        "Altitude(m)": 707283.9321381721,
        "Argument of Periapsis(deg)": 0.004556048474650827,
        "Eccentricity": 0.0,
        "Inclination(deg)": 45.0,
        "Latitude(deg)": 45.04343810655813,
        "Longitude(deg)": 29.66993826627065,
        "Mean Anomaly(deg)": 86.43148665899234,
        "RAAN(deg)": 44.99569922341672,
        "Satellite Name": "Constellation 1 203",
        "Satellite Number": 203,
        "Semi-Major Axis(m)": 7083131.272910544,
        "Time(s)": 76
    },
    {
        "Altitude(m)": 707284.7881920295,
        "Argument of Periapsis(deg)": 0.004615996480896233,
        "Eccentricity": 0.0,
        "Inclination(deg)": 45.0,
        "Latitude(deg)": 45.047183825309595,
        "Longitude(deg)": 29.751397336951094,
        "Mean Anomaly(deg)": 86.49218779924223,
        "RAAN(deg)": 44.99564263425115,
        "Satellite Name": "Constellation 1 203",
        "Satellite Number": 203,
        "Semi-Major Axis(m)": 7083131.272910544,
        "Time(s)": 77
    },
    {
        "Altitude(m)": 707285.6297491711,
        "Argument of Periapsis(deg)": 0.004675944487141638,
        "Eccentricity": 0.0,
        "Inclination(deg)": 45.0,
        "Latitude(deg)": 45.05086545012601,
        "Longitude(deg)": 29.83286747383769,
        "Mean Anomaly(deg)": 86.55288893949212,
        "RAAN(deg)": 44.995586045085574,
        "Satellite Name": "Constellation 1 203",
        "Satellite Number": 203,
        "Semi-Major Axis(m)": 7083131.272910544,
        "Time(s)": 78
    },
    {
        "Altitude(m)": 707286.456804719,
        "Argument of Periapsis(deg)": 0.004735892493387044,
        "Eccentricity": 0.0,
        "Inclination(deg)": 45.0,
        "Latitude(deg)": 45.054482964700256,
        "Longitude(deg)": 29.914348488709855,
        "Mean Anomaly(deg)": 86.61359007974204,
        "RAAN(deg)": 44.99552945592001,
        "Satellite Name": "Constellation 1 203",
        "Satellite Number": 203,
        "Semi-Major Axis(m)": 7083131.272910544,
        "Time(s)": 79
    },
    {
        "Altitude(m)": 707287.2693538634,
        "Argument of Periapsis(deg)": 0.004795840499632449,
        "Eccentricity": 0.0,
        "Inclination(deg)": 45.0,
        "Latitude(deg)": 45.05803635300411,
        "Longitude(deg)": 29.995840193153256,
        "Mean Anomaly(deg)": 86.67429121999191,
        "RAAN(deg)": 44.99547286675444,
        "Satellite Name": "Constellation 1 203",
        "Satellite Number": 203,
        "Semi-Major Axis(m)": 7083131.272910544,
        "Time(s)": 80
    },
    {
        "Altitude(m)": 707288.0673918974,
        "Argument of Periapsis(deg)": 0.004855788505877855,
        "Eccentricity": 0.0,
        "Inclination(deg)": 45.0,
        "Latitude(deg)": 45.06152559928847,
        "Longitude(deg)": 30.07734239856367,
        "Mean Anomaly(deg)": 86.73499236024182,
        "RAAN(deg)": 44.995416277588866,
        "Satellite Name": "Constellation 1 203",
        "Satellite Number": 203,
        "Semi-Major Axis(m)": 7083131.272910544,
        "Time(s)": 81
    },
    {
        "Altitude(m)": 707288.8509141862,
        "Argument of Periapsis(deg)": 0.00491573651212326,
        "Eccentricity": 0.0,
        "Inclination(deg)": 45.0,
        "Latitude(deg)": 45.06495068808361,
        "Longitude(deg)": 30.158854748052725,
        "Mean Anomaly(deg)": 86.79569350049174,
        "RAAN(deg)": 44.99535968842331,
        "Satellite Name": "Constellation 1 203",
        "Satellite Number": 203,
        "Semi-Major Axis(m)": 7083131.272910544,
        "Time(s)": 82
    },
    {
        "Altitude(m)": 707289.619916184,
        "Argument of Periapsis(deg)": 0.004975684518368666,
        "Eccentricity": 0.0,
        "Inclination(deg)": 45.0,
        "Latitude(deg)": 45.06831160420052,
        "Longitude(deg)": 30.240377388839615,
        "Mean Anomaly(deg)": 86.85639464074163,
        "RAAN(deg)": 44.99530309925773,
        "Satellite Name": "Constellation 1 203",
        "Satellite Number": 203,
        "Semi-Major Axis(m)": 7083131.272910544,
        "Time(s)": 83
    },
    {
        "Altitude(m)": 707290.3743934301,
        "Argument of Periapsis(deg)": 0.005035632524614072,
        "Eccentricity": 0.0,
        "Inclination(deg)": 45.0,
        "Latitude(deg)": 45.0716083327294,
        "Longitude(deg)": 30.321909963672017,
        "Mean Anomaly(deg)": 86.91709578099156,
        "RAAN(deg)": 44.99524651009216,
        "Satellite Name": "Constellation 1 203",
        "Satellite Number": 203,
        "Semi-Major Axis(m)": 7083131.272910544,
        "Time(s)": 84
    },
    {
        "Altitude(m)": 707291.1143415489,
        "Argument of Periapsis(deg)": 0.0050955805308594785,
        "Eccentricity": 0.0,
        "Inclination(deg)": 45.0,
        "Latitude(deg)": 45.07484085904138,
        "Longitude(deg)": 30.403452283217355,
        "Mean Anomaly(deg)": 86.97779692124142,
        "RAAN(deg)": 44.995189920926585,
        "Satellite Name": "Constellation 1 203",
        "Satellite Number": 203,
        "Semi-Major Axis(m)": 7083131.272910544,
        "Time(s)": 85
    },
    {
        "Altitude(m)": 707291.8397562536,
        "Argument of Periapsis(deg)": 0.005155528537104883,
        "Eccentricity": 0.0,
        "Inclination(deg)": 45.0,
        "Latitude(deg)": 45.07800916878838,
        "Longitude(deg)": 30.48500415796959,
        "Mean Anomaly(deg)": 87.03849806149134,
        "RAAN(deg)": 44.995133331761025,
        "Satellite Name": "Constellation 1 203",
        "Satellite Number": 203,
        "Semi-Major Axis(m)": 7083131.272910544,
        "Time(s)": 86
    },
    {
        "Altitude(m)": 707292.5506333313,
        "Argument of Periapsis(deg)": 0.0052154765433502885,
        "Eccentricity": 0.0,
        "Inclination(deg)": 45.0,
        "Latitude(deg)": 45.08111324790339,
        "Longitude(deg)": 30.566565398252,
        "Mean Anomaly(deg)": 87.09919920174123,
        "RAAN(deg)": 44.99507674259545,
        "Satellite Name": "Constellation 1 203",
        "Satellite Number": 203,
        "Semi-Major Axis(m)": 7083131.272910544,
        "Time(s)": 87
    },
    {
        "Altitude(m)": 707293.2469686716,
        "Argument of Periapsis(deg)": 0.005275424549595694,
        "Eccentricity": 0.0,
        "Inclination(deg)": 45.0,
        "Latitude(deg)": 45.08415308260086,
        "Longitude(deg)": 30.648135814220698,
        "Mean Anomaly(deg)": 87.15990034199113,
        "RAAN(deg)": 44.995020153429884,
        "Satellite Name": "Constellation 1 203",
        "Satellite Number": 203,
        "Semi-Major Axis(m)": 7083131.272910544,
        "Time(s)": 88
    },
    {
        "Altitude(m)": 707293.9287582265,
        "Argument of Periapsis(deg)": 0.0053353725558411,
        "Eccentricity": 0.0,
        "Inclination(deg)": 45.0,
        "Latitude(deg)": 45.08712865937664,
        "Longitude(deg)": 30.729715047770796,
        "Mean Anomaly(deg)": 87.22060148224101,
        "RAAN(deg)": 44.99496356426431,
        "Satellite Name": "Constellation 1 203",
        "Satellite Number": 203,
        "Semi-Major Axis(m)": 7083131.272910544,
        "Time(s)": 89
    },
    {
        "Altitude(m)": 707294.595998059,
        "Argument of Periapsis(deg)": 0.005395320562086505,
        "Eccentricity": 0.0,
        "Inclination(deg)": 45.0,
        "Latitude(deg)": 45.09003996500946,
        "Longitude(deg)": 30.81130324492865,
        "Mean Anomaly(deg)": 87.28130262249094,
        "RAAN(deg)": 44.99490697509874,
        "Satellite Name": "Constellation 1 203",
        "Satellite Number": 203,
        "Semi-Major Axis(m)": 7083131.272910544,
        "Time(s)": 90
    },
    {
        "Altitude(m)": 707295.2486842966,
        "Argument of Periapsis(deg)": 0.00545526856833191,
        "Eccentricity": 0.0,
        "Inclination(deg)": 45.0,
        "Latitude(deg)": 45.09288698655941,
        "Longitude(deg)": 30.892900047271485,
        "Mean Anomaly(deg)": 87.34200376274082,
        "RAAN(deg)": 44.99485038593317,
        "Satellite Name": "Constellation 1 203",
        "Satellite Number": 203,
        "Semi-Major Axis(m)": 7083131.272910544,
        "Time(s)": 91
    },
    {
        "Altitude(m)": 707295.886813161,
        "Argument of Periapsis(deg)": 0.005515216574577317,
        "Eccentricity": 0.0,
        "Inclination(deg)": 45.0,
        "Latitude(deg)": 45.09566971136946,
        "Longitude(deg)": 30.974505264320285,
        "Mean Anomaly(deg)": 87.40270490299072,
        "RAAN(deg)": 44.99479379676761,
        "Satellite Name": "Constellation 1 203",
        "Satellite Number": 203,
        "Semi-Major Axis(m)": 7083131.272910544,
        "Time(s)": 92
    },
    {
        "Altitude(m)": 707296.5103809572,
        "Argument of Periapsis(deg)": 0.005575164580822722,
        "Eccentricity": 0.0,
        "Inclination(deg)": 45.0,
        "Latitude(deg)": 45.09838812706539,
        "Longitude(deg)": 31.05611870544523,
        "Mean Anomaly(deg)": 87.46340604324065,
        "RAAN(deg)": 44.994737207602036,
        "Satellite Name": "Constellation 1 203",
        "Satellite Number": 203,
        "Semi-Major Axis(m)": 7083131.272910544,
        "Time(s)": 93
    },
    {
        "Altitude(m)": 707297.119384072,
        "Argument of Periapsis(deg)": 0.005635112587068129,
        "Eccentricity": 0.0,
        "Inclination(deg)": 45.0,
        "Latitude(deg)": 45.10104222155608,
        "Longitude(deg)": 31.13774017986949,
        "Mean Anomaly(deg)": 87.52410718349051,
        "RAAN(deg)": 44.99468061843647,
        "Satellite Name": "Constellation 1 203",
        "Satellite Number": 203,
        "Semi-Major Axis(m)": 7083131.272910544,
        "Time(s)": 94
    }
]